CELESTIS-02 & TAURUS R/B
1 25160U 98007D   26064.67409207  .00000042  00000+0  75530-4 0  9990
2 25160 108.0084 123.3511 0063248 308.7442 166.6809 14.22451999455796
