[{"OBJECT_NAME":"CELESTIS-02 & TAURUS R/B","OBJECT_ID":"1998-007D","EPOCH":"2026-03-05T16:10:41.554848","MEAN_MOTION":14.22451999,"ECCENTRICITY":0.0063248,"INCLINATION":108.0084,"RA_OF_ASC_NODE":123.3511,"ARG_OF_PERICENTER":308.7442,"MEAN_ANOMALY":166.6809,"EPHEMERIS_TYPE":0,"CLASSIFICATION_TYPE":"U","NORAD_CAT_ID":25160,"ELEMENT_SET_NO":999,"REV_AT_EPOCH":45579,"BSTAR":7.553e-5,"MEAN_MOTION_DOT":4.2e-7,"MEAN_MOTION_DDOT":0}]
